{
  "schema": "int-telemetry-real-tle-snapshot/v1",
  "source": "celestrak",
  "group": "STARLINK",
  "format": "celestrak-gp-json",
  "source_url": "https://celestrak.org/NORAD/elements/gp.php?NAME=STARLINK&FORMAT=JSON",
  "downloaded_at": "2026-07-01T09:45:20.184Z",
  "generated_at": "2026-07-01T09:45:20.328Z",
  "fingerprint": "b8e2cd48",
  "shell_id": "starlink-real-53.2deg-545km",
  "catalog_count": 10658,
  "shell_count": 1056,
  "selected_count": 64,
  "mean_altitude_km": 544.89,
  "mean_inclination_deg": 53.1617,
  "mean_mean_motion_rev_per_day": 15.09493346,
  "layout": {
    "planes": 8,
    "satellites_per_plane": 8,
    "selection_strategy": "target-shell-raan-clusters-even-slot-sampling",
    "raan_cluster_threshold_deg": 1.5,
    "target_inclination_deg": 53,
    "target_altitude_km": 550,
    "selected_shell_key": "53.0deg-550km",
    "target_shell_distance": 21.03
  },
  "satellites": [
    {
      "satellite_id": "P06-S03",
      "norad_id": 51861,
      "satellite_name": "STARLINK-3562",
      "cospar_id": "2022-022K",
      "shell_id": "starlink-real-53.2deg-545km",
      "plane_id": 5,
      "slot_id": 2,
      "epoch": "2026-06-25T11:40:21.606816",
      "inclination": 53.1585,
      "raan": 245.05510000000004,
      "eccentricity": 0.0001048,
      "argument_of_perigee": 86.7926,
      "mean_anomaly": 273.3185,
      "mean_motion": 15.08833112,
      "bstar": 0.0000036961,
      "status": "active",
      "raw_omm": {
        "OBJECT_NAME": "STARLINK-3562",
        "OBJECT_ID": "2022-022K",
        "EPOCH": "2026-06-25T11:40:21.606816",
        "MEAN_MOTION": 15.08833112,
        "ECCENTRICITY": 0.0001048,
        "INCLINATION": 53.1585,
        "RA_OF_ASC_NODE": 245.0551,
        "ARG_OF_PERICENTER": 86.7926,
        "MEAN_ANOMALY": 273.3185,
        "EPHEMERIS_TYPE": 0,
        "CLASSIFICATION_TYPE": "U",
        "NORAD_CAT_ID": 51861,
        "ELEMENT_SET_NO": 999,
        "REV_AT_EPOCH": 23930,
        "BSTAR": 0.0000036961,
        "MEAN_MOTION_DOT": -0.00000229,
        "MEAN_MOTION_DDOT": 0
      },
      "source": "celestrak",
      "source_url": "https://celestrak.org/NORAD/elements/gp.php?NAME=STARLINK&FORMAT=JSON",
      "catalog_fingerprint": "b8e2cd48"
    },
    {
      "satellite_id": "P06-S04",
      "norad_id": 51864,
      "satellite_name": "STARLINK-3548",
      "cospar_id": "2022-022N",
      "shell_id": "starlink-real-53.2deg-545km",
      "plane_id": 5,
      "slot_id": 3,
      "epoch": "2026-06-25T11:35:02.905728",
      "inclination": 53.1579,
      "raan": 244.99360000000001,
      "eccentricity": 0.0001129,
      "argument_of_perigee": 83.60450000000003,
      "mean_anomaly": 276.50739999999996,
      "mean_motion": 15.08832586,
      "bstar": -0.0000093935,
      "status": "active",
      "raw_omm": {
        "OBJECT_NAME": "STARLINK-3548",
        "OBJECT_ID": "2022-022N",
        "EPOCH": "2026-06-25T11:35:02.905728",
        "MEAN_MOTION": 15.08832586,
        "ECCENTRICITY": 0.0001129,
        "INCLINATION": 53.1579,
        "RA_OF_ASC_NODE": 244.9936,
        "ARG_OF_PERICENTER": 83.6045,
        "MEAN_ANOMALY": 276.5074,
        "EPHEMERIS_TYPE": 0,
        "CLASSIFICATION_TYPE": "U",
        "NORAD_CAT_ID": 51864,
        "ELEMENT_SET_NO": 999,
        "REV_AT_EPOCH": 23943,
        "BSTAR": -0.0000093935,
        "MEAN_MOTION_DOT": -0.00000437,
        "MEAN_MOTION_DDOT": 0
      },
      "source": "celestrak",
      "source_url": "https://celestrak.org/NORAD/elements/gp.php?NAME=STARLINK&FORMAT=JSON",
      "catalog_fingerprint": "b8e2cd48"
    },
    {
      "satellite_id": "P06-S05",
      "norad_id": 51870,
      "satellite_name": "STARLINK-3591",
      "cospar_id": "2022-022U",
      "shell_id": "starlink-real-53.2deg-545km",
      "plane_id": 5,
      "slot_id": 4,
      "epoch": "2026-06-25T14:19:19.995744",
      "inclination": 53.1591,
      "raan": 244.55909999999994,
      "eccentricity": 0.0001134,
      "argument_of_perigee": 82.10239999999999,
      "mean_anomaly": 278.00970000000007,
      "mean_motion": 15.08835843,
      "bstar": 0.000012833,
      "status": "active",
      "raw_omm": {
        "OBJECT_NAME": "STARLINK-3591",
        "OBJECT_ID": "2022-022U",
        "EPOCH": "2026-06-25T14:19:19.995744",
        "MEAN_MOTION": 15.08835843,
        "ECCENTRICITY": 0.0001134,
        "INCLINATION": 53.1591,
        "RA_OF_ASC_NODE": 244.5591,
        "ARG_OF_PERICENTER": 82.1024,
        "MEAN_ANOMALY": 278.0097,
        "EPHEMERIS_TYPE": 0,
        "CLASSIFICATION_TYPE": "U",
        "NORAD_CAT_ID": 51870,
        "ELEMENT_SET_NO": 999,
        "REV_AT_EPOCH": 23945,
        "BSTAR": 0.000012833,
        "MEAN_MOTION_DOT": -8.4e-7,
        "MEAN_MOTION_DDOT": 0
      },
      "source": "celestrak",
      "source_url": "https://celestrak.org/NORAD/elements/gp.php?NAME=STARLINK&FORMAT=JSON",
      "catalog_fingerprint": "b8e2cd48"
    },
    {
      "satellite_id": "P06-S06",
      "norad_id": 51860,
      "satellite_name": "STARLINK-3559",
      "cospar_id": "2022-022J",
      "shell_id": "starlink-real-53.2deg-545km",
      "plane_id": 5,
      "slot_id": 5,
      "epoch": "2026-06-25T15:12:19.939104",
      "inclination": 53.1606,
      "raan": 244.3945,
      "eccentricity": 0.0001163,
      "argument_of_perigee": 87.69830000000002,
      "mean_anomaly": 272.41409999999996,
      "mean_motion": 15.08830004,
      "bstar": 0.000095543,
      "status": "active",
      "raw_omm": {
        "OBJECT_NAME": "STARLINK-3559",
        "OBJECT_ID": "2022-022J",
        "EPOCH": "2026-06-25T15:12:19.939104",
        "MEAN_MOTION": 15.08830004,
        "ECCENTRICITY": 0.0001163,
        "INCLINATION": 53.1606,
        "RA_OF_ASC_NODE": 244.3945,
        "ARG_OF_PERICENTER": 87.6983,
        "MEAN_ANOMALY": 272.4141,
        "EPHEMERIS_TYPE": 0,
        "CLASSIFICATION_TYPE": "U",
        "NORAD_CAT_ID": 51860,
        "ELEMENT_SET_NO": 999,
        "REV_AT_EPOCH": 23941,
        "BSTAR": 0.000095543,
        "MEAN_MOTION_DOT": 0.00001233,
        "MEAN_MOTION_DDOT": 0
      },
      "source": "celestrak",
      "source_url": "https://celestrak.org/NORAD/elements/gp.php?NAME=STARLINK&FORMAT=JSON",
      "catalog_fingerprint": "b8e2cd48"
    },
    {
      "satellite_id": "P06-S07",
      "norad_id": 51863,
      "satellite_name": "STARLINK-3555",
      "cospar_id": "2022-022M",
      "shell_id": "starlink-real-53.2deg-545km",
      "plane_id": 5,
      "slot_id": 6,
      "epoch": "2026-06-25T11:29:45.695904",
      "inclination": 53.1585,
      "raan": 245.0879,
      "eccentricity": 0.0001233,
      "argument_of_perigee": 72.0369,
      "mean_anomaly": 288.0757,
      "mean_motion": 15.08831809,
      "bstar": 0.00007963,
      "status": "active",
      "raw_omm": {
        "OBJECT_NAME": "STARLINK-3555",
        "OBJECT_ID": "2022-022M",
        "EPOCH": "2026-06-25T11:29:45.695904",
        "MEAN_MOTION": 15.08831809,
        "ECCENTRICITY": 0.0001233,
        "INCLINATION": 53.1585,
        "RA_OF_ASC_NODE": 245.0879,
        "ARG_OF_PERICENTER": 72.0369,
        "MEAN_ANOMALY": 288.0757,
        "EPHEMERIS_TYPE": 0,
        "CLASSIFICATION_TYPE": "U",
        "NORAD_CAT_ID": 51863,
        "ELEMENT_SET_NO": 999,
        "REV_AT_EPOCH": 23938,
        "BSTAR": 0.00007963,
        "MEAN_MOTION_DOT": 0.00000979,
        "MEAN_MOTION_DDOT": 0
      },
      "source": "celestrak",
      "source_url": "https://celestrak.org/NORAD/elements/gp.php?NAME=STARLINK&FORMAT=JSON",
      "catalog_fingerprint": "b8e2cd48"
    },
    {
      "satellite_id": "P06-S08",
      "norad_id": 51878,
      "satellite_name": "STARLINK-3575",
      "cospar_id": "2022-022AC",
      "shell_id": "starlink-real-53.2deg-545km",
      "plane_id": 5,
      "slot_id": 7,
      "epoch": "2026-06-25T13:42:14.741280",
      "inclination": 53.1596,
      "raan": 244.67489999999998,
      "eccentricity": 0.0001237,
      "argument_of_perigee": 88.1805,
      "mean_anomaly": 271.93280000000004,
      "mean_motion": 15.08836044,
      "bstar": 0.000034305,
      "status": "active",
      "raw_omm": {
        "OBJECT_NAME": "STARLINK-3575",
        "OBJECT_ID": "2022-022AC",
        "EPOCH": "2026-06-25T13:42:14.741280",
        "MEAN_MOTION": 15.08836044,
        "ECCENTRICITY": 0.0001237,
        "INCLINATION": 53.1596,
        "RA_OF_ASC_NODE": 244.6749,
        "ARG_OF_PERICENTER": 88.1805,
        "MEAN_ANOMALY": 271.9328,
        "EPHEMERIS_TYPE": 0,
        "CLASSIFICATION_TYPE": "U",
        "NORAD_CAT_ID": 51878,
        "ELEMENT_SET_NO": 999,
        "REV_AT_EPOCH": 23940,
        "BSTAR": 0.000034305,
        "MEAN_MOTION_DOT": 0.00000258,
        "MEAN_MOTION_DDOT": 0
      },
      "source": "celestrak",
      "source_url": "https://celestrak.org/NORAD/elements/gp.php?NAME=STARLINK&FORMAT=JSON",
      "catalog_fingerprint": "b8e2cd48"
    }
  ]
}