STARLINK-3559           
1 51860U 22022J   26176.63356411  .00001233  00000+0  95543-4 0  9997
2 51860  53.1606 244.3945 0001163  87.6983 272.4141 15.08830004239415
STARLINK-3562           
1 51861U 22022K   26176.48636119 -.00000229  00000+0  36961-5 0  9992
2 51861  53.1585 245.0551 0001048  86.7926 273.3185 15.08833112239301
STARLINK-3555           
1 51863U 22022M   26176.47900111  .00000979  00000+0  79630-4 0  9999
2 51863  53.1585 245.0879 0001233  72.0369 288.0757 15.08831809239388
STARLINK-3548           
1 51864U 22022N   26176.48267252 -.00000437  00000+0 -93935-5 0  9999
2 51864  53.1579 244.9936 0001129  83.6045 276.5074 15.08832586239430
STARLINK-3591           
1 51870U 22022U   26176.59675921 -.00000084  00000+0  12833-4 0  9998
2 51870  53.1591 244.5591 0001134  82.1024 278.0097 15.08835843239454
STARLINK-3575           
1 51878U 22022AC  26176.57100395  .00000258  00000+0  34305-4 0  9992
2 51878  53.1596 244.6749 0001237  88.1805 271.9328 15.08836044239408
